{"type": "FeatureCollection", "features": [{"type": "Feature", "properties": {"adcode": 330000, "name": "浙江省", "center": [120.153576, 30.287459], "centroid": [120.109913, 29.181466], "childrenNum": 11, "level": "province", "parent": {"adcode": 100000}, "subFeatureIndex": 10, "acroutes": [100000]}, "geometry": {"type": "MultiPolygon", "coordinates": [[[[118.433896, 28.288335], [118.444367, 28.253548], [118.490562, 28.238259], [118.493026, 28.262509], [118.588497, 28.282538], [118.595272, 28.258292], [118.651322, 28.277267], [118.674728, 28.27147], [118.699366, 28.309939], [118.719692, 28.312047], [118.756032, 28.252493], [118.802228, 28.240368], [118.804075, 28.207675], [118.771431, 28.188687], [118.805923, 28.154923], [118.802228, 28.117453], [118.767735, 28.10584], [118.719076, 28.063601], [118.733858, 28.027684], [118.730163, 27.970615], [118.753568, 27.947885], [118.818242, 27.916689], [118.829329, 27.847921], [118.873677, 27.733563], [118.879836, 27.667859], [118.913713, 27.619616], [118.909401, 27.568168], [118.869365, 27.540047], [118.907553, 27.460952], [118.955597, 27.4498], [118.986393, 27.47582], [118.983314, 27.498649], [119.020886, 27.498118], [119.03998, 27.478475], [119.092335, 27.466262], [119.129907, 27.475289], [119.121284, 27.438115], [119.14777, 27.424836], [119.224146, 27.416868], [119.26911, 27.42218], [119.285124, 27.457766], [119.334399, 27.480067], [119.360269, 27.524657], [119.416935, 27.539517], [119.438493, 27.508734], [119.466826, 27.526249], [119.501935, 27.610601], [119.501319, 27.649837], [119.541971, 27.666799], [119.606028, 27.674749], [119.644217, 27.663619], [119.626354, 27.620676], [119.630666, 27.582491], [119.675014, 27.574534], [119.659615, 27.540578], [119.690412, 27.537394], [119.70889, 27.514042], [119.703347, 27.446613], [119.685485, 27.438646], [119.711354, 27.403054], [119.750774, 27.373829], [119.739687, 27.362668], [119.782187, 27.330241], [119.768636, 27.307909], [119.843165, 27.300464], [119.938636, 27.329709], [119.960194, 27.365857], [120.008237, 27.375423], [120.026099, 27.344063], [120.052584, 27.338747], [120.096316, 27.390302], [120.136968, 27.402523], [120.134504, 27.420055], [120.221352, 27.420055], [120.26262, 27.432804], [120.273091, 27.38924], [120.340844, 27.399867], [120.343924, 27.363199], [120.430155, 27.258976], [120.401822, 27.250996], [120.404286, 27.204166], [120.461568, 27.142407], [120.492365, 27.136016], [120.545952, 27.156785], [120.574901, 27.234501], [120.554575, 27.25206], [120.580444, 27.321203], [120.665444, 27.357884], [120.673451, 27.420055], [120.703016, 27.478475], [120.637111, 27.561271], [120.634647, 27.577186], [120.685154, 27.622797], [120.709176, 27.682699], [120.771386, 27.734623], [120.777545, 27.774873], [120.809574, 27.775402], [120.840371, 27.758986], [120.910588, 27.864852], [120.942001, 27.896592], [120.97403, 27.887071], [121.027616, 27.832574], [121.070116, 27.834162], [121.107688, 27.81352], [121.152036, 27.815638], [121.134174, 27.787051], [121.13479, 27.787051], [121.149572, 27.801345], [121.149572, 27.801875], [121.153268, 27.809815], [121.152652, 27.810344], [121.192072, 27.822518], [121.193304, 27.872259], [121.162507, 27.879136], [121.162507, 27.90717], [121.099681, 27.895005], [121.05595, 27.900294], [120.991892, 27.95], [121.015298, 27.981714], [121.059029, 28.096338], [121.108304, 28.139092], [121.121239, 28.12537], [121.140949, 28.031382], [121.176058, 28.022401], [121.261057, 28.034551], [121.299862, 28.067297], [121.328195, 28.134343], [121.373774, 28.133287], [121.402107, 28.197127], [121.45631, 28.250385], [121.488955, 28.301509], [121.538846, 28.299401], [121.571491, 28.279376], [121.580114, 28.240368], [121.627541, 28.251966], [121.669425, 28.33312], [121.660186, 28.355768], [121.634317, 28.347868], [121.658954, 28.392628], [121.692831, 28.407368], [121.671273, 28.472621], [121.646019, 28.511544], [121.634317, 28.562542], [121.596128, 28.575156], [121.557324, 28.645033], [121.540694, 28.655537], [121.646019, 28.682842], [121.689135, 28.719062], [121.704534, 28.804577], [121.687287, 28.863294], [121.774751, 28.863818], [121.772287, 28.898404], [121.743338, 28.954451], [121.711309, 28.985865], [121.712541, 29.028783], [121.658954, 29.058606], [121.660186, 29.118226], [121.616454, 29.143318], [121.608447, 29.168927], [121.715621, 29.125022], [121.750113, 29.136523], [121.767975, 29.166837], [121.780294, 29.10986], [121.811091, 29.10986], [121.85975, 29.086328], [121.884388, 29.105677], [121.966308, 29.052852], [121.970004, 29.092604], [121.988482, 29.110906], [121.986634, 29.154817], [121.948446, 29.193485], [121.971851, 29.193485], [121.966924, 29.249894], [122.002032, 29.260336], [122.000185, 29.278608], [121.94475, 29.28435], [121.958301, 29.334448], [121.936127, 29.348012], [121.937975, 29.384], [121.975547, 29.411113], [121.993409, 29.45229], [121.973083, 29.477821], [121.968772, 29.515846], [121.995257, 29.545007], [122.000185, 29.582486], [121.966308, 29.636078], [121.909641, 29.650122], [121.872685, 29.632437], [121.833265, 29.653242], [121.937359, 29.748373], [122.003264, 29.762401], [122.043916, 29.822647], [122.10243, 29.859504], [122.143082, 29.877668], [122.140003, 29.901535], [122.00696, 29.891678], [122.00388, 29.92021], [121.971235, 29.955476], [121.919497, 29.920729], [121.835113, 29.958068], [121.78399, 29.99332], [121.721164, 29.992802], [121.699606, 30.007832], [121.652795, 30.071037], [121.635548, 30.070002], [121.561636, 30.184395], [121.497578, 30.258861], [121.395332, 30.338435], [121.371926, 30.37097], [121.328195, 30.397299], [121.225333, 30.404526], [121.183449, 30.434458], [121.092906, 30.515952], [121.058413, 30.563888], [121.148956, 30.599953], [121.188992, 30.632916], [121.239499, 30.648878], [121.274608, 30.677191], [121.272144, 30.723504], [121.232108, 30.755909], [121.21671, 30.785734], [121.174826, 30.771851], [121.123087, 30.77905], [121.13787, 30.826342], [121.097833, 30.857171], [121.060261, 30.845354], [121.038087, 30.814007], [120.991892, 30.837133], [121.020225, 30.872069], [120.993124, 30.889532], [121.000515, 30.938309], [120.989428, 31.01425], [120.949392, 31.030148], [120.940153, 31.010146], [120.901349, 31.017327], [120.865624, 30.989627], [120.820661, 31.006556], [120.770154, 30.996809], [120.746132, 30.962432], [120.698089, 30.970643], [120.684538, 30.955247], [120.709176, 30.933176], [120.713487, 30.88491], [120.68269, 30.882342], [120.654973, 30.846896], [120.589684, 30.854089], [120.563814, 30.835592], [120.504684, 30.757967], [120.489285, 30.763624], [120.460336, 30.839702], [120.441858, 30.860768], [120.435083, 30.920855], [120.42338, 30.902884], [120.35809, 30.886964], [120.371025, 30.948575], [120.316206, 30.933689], [120.223816, 30.926502], [120.149903, 30.937283], [120.111099, 30.955761], [120.052584, 31.00553], [120.001461, 31.027071], [119.988527, 31.059375], [119.946027, 31.106016], [119.921389, 31.170045], [119.878274, 31.160828], [119.827151, 31.174142], [119.809904, 31.148536], [119.779723, 31.17875], [119.715666, 31.169533], [119.705811, 31.152634], [119.678093, 31.167997], [119.623891, 31.130096], [119.649144, 31.104991], [119.629434, 31.085517], [119.633746, 31.019379], [119.580159, 30.967051], [119.582007, 30.932149], [119.563529, 30.919315], [119.557369, 30.874124], [119.575847, 30.829939], [119.55429, 30.825828], [119.527188, 30.77905], [119.479761, 30.772365], [119.482841, 30.704467], [119.444652, 30.650422], [119.408312, 30.645274], [119.39045, 30.685941], [119.343022, 30.664322], [119.323312, 30.630341], [119.238929, 30.609225], [119.265414, 30.574709], [119.237081, 30.546881], [119.272189, 30.510281], [119.326392, 30.532964], [119.336247, 30.508734], [119.335015, 30.448389], [119.36766, 30.38491], [119.402768, 30.374584], [119.349182, 30.349281], [119.326392, 30.372002], [119.277117, 30.341018], [119.246936, 30.341018], [119.236465, 30.297106], [119.201356, 30.290905], [119.126828, 30.304856], [119.091719, 30.323972], [119.06277, 30.304856], [118.988857, 30.332237], [118.954365, 30.360126], [118.880452, 30.31519], [118.877988, 30.282637], [118.905089, 30.216464], [118.929727, 30.2025], [118.852735, 30.166805], [118.852119, 30.149729], [118.895234, 30.148694], [118.873677, 30.11505], [118.878604, 30.064822], [118.902626, 30.029078], [118.894619, 29.937845], [118.838568, 29.934733], [118.841032, 29.891159], [118.740634, 29.814859], [118.744945, 29.73902], [118.700598, 29.706277], [118.647011, 29.64336], [118.61991, 29.654282], [118.573714, 29.638159], [118.532446, 29.588731], [118.500417, 29.57572], [118.496106, 29.519492], [118.381541, 29.504909], [118.347664, 29.474174], [118.329802, 29.495012], [118.306396, 29.479384], [118.316252, 29.422581], [118.248498, 29.431443], [118.193064, 29.395472], [118.205382, 29.343839], [118.166578, 29.314099], [118.178281, 29.297921], [118.138861, 29.283828], [118.077883, 29.290614], [118.073571, 29.216993], [118.042159, 29.210202], [118.027992, 29.167882], [118.045238, 29.149068], [118.037847, 29.102017], [118.076035, 29.074822], [118.066796, 29.053898], [118.097593, 28.998952], [118.115455, 29.009944], [118.115455, 29.009944], [118.133933, 28.983771], [118.165346, 28.986912], [118.227556, 28.942406], [118.195527, 28.904167], [118.270056, 28.918836], [118.300237, 28.826075], [118.364295, 28.813491], [118.403099, 28.702791], [118.428352, 28.681267], [118.428352, 28.617193], [118.428352, 28.617193], [118.412338, 28.55676], [118.4302, 28.515225], [118.414802, 28.497344], [118.474548, 28.478934], [118.456686, 28.424738], [118.432048, 28.402104], [118.455454, 28.384204], [118.480091, 28.327325], [118.433896, 28.288335]]], [[[122.163408, 29.988137], [122.239785, 29.962735], [122.279205, 29.937326], [122.322321, 29.940438], [122.341415, 29.976733], [122.343879, 30.020269], [122.310002, 30.039958], [122.290908, 30.074663], [122.301379, 30.086574], [122.293988, 30.100554], [122.152938, 30.113497], [122.095655, 30.158008], [122.048844, 30.147141], [121.955221, 30.183878], [121.934895, 30.161631], [121.983554, 30.100554], [121.989714, 30.077252], [121.978011, 30.059125], [122.027902, 29.991247], [122.106742, 30.005759], [122.118445, 29.986582], [122.163408, 29.988137]]], [[[122.213915, 30.186464], [122.178807, 30.199396], [122.152938, 30.19112], [122.143698, 30.163183], [122.168336, 30.138343], [122.213915, 30.186464]]], [[[122.229314, 29.711995], [122.210836, 29.700559], [122.269966, 29.685482], [122.231162, 29.710435], [122.229314, 29.711995]]], [[[122.427646, 30.738422], [122.427031, 30.697777], [122.532972, 30.696748], [122.528045, 30.725047], [122.475074, 30.714243], [122.445509, 30.745109], [122.427646, 30.738422]]], [[[122.162793, 30.329654], [122.058083, 30.291938], [122.154169, 30.244903], [122.231778, 30.234562], [122.247176, 30.30124], [122.228082, 30.329654], [122.191126, 30.329654], [122.176343, 30.351863], [122.162793, 30.329654]]], [[[122.317393, 30.249556], [122.277973, 30.242835], [122.358661, 30.236113], [122.365437, 30.255242], [122.417175, 30.238699], [122.40732, 30.272817], [122.333408, 30.272817], [122.317393, 30.249556]]], [[[122.026054, 29.178333], [122.013119, 29.151681], [122.056851, 29.158476], [122.075945, 29.176243], [122.036525, 29.20759], [122.026054, 29.178333]]], [[[122.372212, 29.893234], [122.386379, 29.834069], [122.415944, 29.828877], [122.401777, 29.869884], [122.433806, 29.883376], [122.43319, 29.919173], [122.411632, 29.951846], [122.398081, 29.9394], [122.351886, 29.959105], [122.330944, 29.937845], [122.338951, 29.911911], [122.353734, 29.89946], [122.362973, 29.894272], [122.372212, 29.893234]]], [[[122.43011, 30.408655], [122.432574, 30.445294], [122.37406, 30.461802], [122.277973, 30.471603], [122.281669, 30.418461], [122.318625, 30.407106], [122.352502, 30.422074], [122.43011, 30.408655]]], [[[121.837577, 28.770484], [121.86283, 28.782024], [121.861598, 28.814016], [121.837577, 28.770484]]], [[[122.265038, 29.84549], [122.221307, 29.832512], [122.248408, 29.804473], [122.310002, 29.766557], [122.325401, 29.781621], [122.299531, 29.819532], [122.319241, 29.829397], [122.265038, 29.84549]]], [[[121.790765, 29.082144], [121.832649, 29.050236], [121.84312, 29.082144], [121.82033, 29.099402], [121.790765, 29.082144]]], [[[121.201311, 27.623328], [121.197616, 27.618025], [121.198848, 27.616964], [121.203775, 27.625979], [121.201311, 27.623328]]], [[[121.943518, 30.776993], [121.968156, 30.688514], [121.997105, 30.658659], [122.087032, 30.602014], [122.133227, 30.595317], [122.075329, 30.647848], [122.011271, 30.66947], [121.992793, 30.695204], [121.987866, 30.753338], [121.970004, 30.789333], [121.943518, 30.776993]]], [[[121.889315, 28.471569], [121.918881, 28.497344], [121.881924, 28.502603], [121.889315, 28.471569]]], [[[122.182503, 29.650642], [122.211452, 29.692241], [122.200365, 29.712515], [122.146778, 29.749412], [122.13138, 29.788893], [122.083952, 29.78318], [122.047612, 29.719791], [122.074097, 29.701599], [122.095655, 29.716673], [122.138155, 29.662083], [122.182503, 29.650642]]], [[[122.461523, 29.944068], [122.459675, 29.944586], [122.460291, 29.947179], [122.451668, 29.943031], [122.451052, 29.940956], [122.450436, 29.940956], [122.449204, 29.9394], [122.4529, 29.936807], [122.452284, 29.935252], [122.45598, 29.926435], [122.457827, 29.927472], [122.462755, 29.927991], [122.467067, 29.928509], [122.459059, 29.938882], [122.461523, 29.944068]]], [[[122.570544, 30.644244], [122.559457, 30.679764], [122.546523, 30.651967], [122.570544, 30.644244]]], [[[121.869605, 28.423685], [121.910873, 28.44], [121.889931, 28.45105], [121.869605, 28.423685]]], [[[122.065474, 30.179739], [122.055619, 30.200431], [122.017431, 30.186464], [122.025438, 30.161631], [122.065474, 30.179739]]], [[[122.391306, 29.970512], [122.411632, 30.025969], [122.378371, 30.023896], [122.3679, 29.980361], [122.391306, 29.970512]]], [[[121.850511, 29.977251], [121.874533, 29.964809], [121.933047, 29.994875], [121.924424, 30.052391], [121.88562, 30.094859], [121.848663, 30.101072], [121.84004, 30.047211], [121.844968, 29.982953], [121.850511, 29.977251]]], [[[121.066421, 27.478475], [121.066421, 27.461483], [121.107073, 27.443958], [121.067036, 27.478475], [121.066421, 27.478475]]], [[[121.952141, 29.187738], [121.979243, 29.160043], [121.976779, 29.191918], [121.952141, 29.187738]]], [[[122.038373, 29.759284], [122.011271, 29.746294], [122.02975, 29.716673], [122.038373, 29.759284]]], [[[121.940438, 30.114533], [121.910257, 30.089163], [121.945982, 30.064304], [121.962612, 30.106249], [121.940438, 30.114533]]], [[[121.957685, 30.287804], [122.0008, 30.308473], [121.989098, 30.339985], [121.94167, 30.33327], [121.921344, 30.30744], [121.957685, 30.287804]]], [[[122.192974, 29.965327], [122.163408, 29.988137], [122.152322, 29.97103], [122.154169, 29.97103], [122.155401, 29.970512], [122.18435, 29.955476], [122.192974, 29.965327]]], [[[122.287828, 29.723949], [122.301379, 29.748373], [122.258263, 29.753569], [122.241633, 29.784738], [122.2133, 29.771752], [122.251488, 29.731225], [122.287828, 29.723949]]], [[[121.134174, 27.787051], [121.134174, 27.785992], [121.13479, 27.787051], [121.134174, 27.787051]]], [[[122.760254, 30.141966], [122.784275, 30.130062], [122.781196, 30.13265], [122.778116, 30.13679], [122.770725, 30.138861], [122.763333, 30.141966], [122.762101, 30.142484], [122.760254, 30.141966]]], [[[122.264423, 30.269716], [122.253952, 30.237147], [122.315545, 30.250073], [122.300147, 30.271266], [122.264423, 30.269716]]], [[[122.282901, 29.860542], [122.30877, 29.849642], [122.343263, 29.860542], [122.343263, 29.882857], [122.301379, 29.883895], [122.282901, 29.860542]]], [[[122.781196, 30.694175], [122.799674, 30.716301], [122.778732, 30.729677], [122.757174, 30.713728], [122.781196, 30.694175]]], [[[121.098449, 27.937311], [121.152652, 27.961629], [121.120623, 27.986471], [121.0695, 27.984357], [121.038087, 27.948942], [121.098449, 27.937311]]], [[[121.185913, 27.963215], [121.237652, 27.988056], [121.197616, 28.000739], [121.17113, 27.978543], [121.185913, 27.963215]]], [[[122.454132, 29.956513], [122.447972, 29.955994], [122.445509, 29.952365], [122.446741, 29.951327], [122.447972, 29.947698], [122.459059, 29.950809], [122.458443, 29.951846], [122.455364, 29.955994], [122.454132, 29.956513]]], [[[122.836014, 30.698806], [122.831087, 30.728648], [122.807681, 30.714243], [122.836014, 30.698806]]], [[[122.200365, 29.969475], [122.233626, 29.946661], [122.273662, 29.93214], [122.239785, 29.960142], [122.200365, 29.969475]]], [[[122.029134, 29.954957], [122.043916, 29.930584], [122.058699, 29.955994], [122.029134, 29.954957]]], [[[121.044247, 27.979072], [121.089826, 27.998625], [121.073812, 28.007608], [121.044247, 27.979072]]], [[[122.471378, 29.927472], [122.470762, 29.925916], [122.473226, 29.925397], [122.47261, 29.927472], [122.471378, 29.927472]]], [[[122.152322, 29.97103], [122.155401, 29.970512], [122.154169, 29.97103], [122.152322, 29.97103]]]]}}, {"type": "Feature", "properties": {"adcode": 360000, "name": "江西省", "center": [115.892151, 28.676493], "centroid": [115.732975, 27.636112], "childrenNum": 11, "level": "province", "parent": {"adcode": 100000}, "subFeatureIndex": 13, "acroutes": [100000]}, "geometry": {"type": "MultiPolygon", "coordinates": [[[[118.193064, 29.395472], [118.136397, 29.418932], [118.127774, 29.47209], [118.143788, 29.489803], [118.095129, 29.534072], [118.050782, 29.542924], [118.042774, 29.566351], [118.00397, 29.578322], [117.933753, 29.549172], [117.872775, 29.54761], [117.795167, 29.570515], [117.729877, 29.550213], [117.690457, 29.555939], [117.678754, 29.595496], [117.647957, 29.614749], [117.608537, 29.591333], [117.543248, 29.588731], [117.523538, 29.630356], [117.530313, 29.654282], [117.490277, 29.660003], [117.453936, 29.688082], [117.455168, 29.749412], [117.408973, 29.802396], [117.415132, 29.85068], [117.382487, 29.840818], [117.359082, 29.812782], [117.338756, 29.848085], [117.29256, 29.822647], [117.25314, 29.834588], [117.261763, 29.880781], [117.246365, 29.915023], [117.2168, 29.926953], [117.171836, 29.920729], [117.129952, 29.89946], [117.127489, 29.86158], [117.073286, 29.831992], [117.123177, 29.798761], [117.136728, 29.775388], [117.108395, 29.75201], [117.112706, 29.711995], [117.041873, 29.680803], [116.996294, 29.683403], [116.974736, 29.657403], [116.939627, 29.648561], [116.873722, 29.609546], [116.849084, 29.57624], [116.780715, 29.569994], [116.760389, 29.599139], [116.721585, 29.564789], [116.716657, 29.590813], [116.651983, 29.637118], [116.680317, 29.681323], [116.653831, 29.694841], [116.673541, 29.709916], [116.762237, 29.802396], [116.780715, 29.792529], [116.882961, 29.893753], [116.900207, 29.949253], [116.868794, 29.980361], [116.83307, 29.95755], [116.830606, 30.004723], [116.802889, 29.99643], [116.783794, 30.030632], [116.747454, 30.057053], [116.720353, 30.053945], [116.666766, 30.076734], [116.620571, 30.073109], [116.585462, 30.045657], [116.552201, 29.909836], [116.525716, 29.897385], [116.467818, 29.896347], [116.342782, 29.835626], [116.280572, 29.788893], [116.250391, 29.785777], [116.227601, 29.816936], [116.172783, 29.828358], [116.13521, 29.819532], [116.087167, 29.795125], [116.049595, 29.761881], [115.965827, 29.724469], [115.909777, 29.723949], [115.837096, 29.748373], [115.762567, 29.793048], [115.706517, 29.837703], [115.667712, 29.850161], [115.611662, 29.841337], [115.51188, 29.840299], [115.479235, 29.811224], [115.470612, 29.739539], [115.412714, 29.688602], [115.355431, 29.649602], [115.304924, 29.637118], [115.28583, 29.618391], [115.250722, 29.660003], [115.176809, 29.654803], [115.113367, 29.684963], [115.117679, 29.655843], [115.143548, 29.645961], [115.120142, 29.597578], [115.157099, 29.584568], [115.154019, 29.510117], [115.086266, 29.525741], [115.087498, 29.560104], [115.033295, 29.546568], [115.00065, 29.572076], [114.947679, 29.542924], [114.966773, 29.522096], [114.940288, 29.493971], [114.900868, 29.505951], [114.860216, 29.476258], [114.888549, 29.436134], [114.918114, 29.454374], [114.90518, 29.473132], [114.935977, 29.486678], [114.947063, 29.465317], [114.931049, 29.422581], [114.895325, 29.397557], [114.866375, 29.404335], [114.812173, 29.383478], [114.784455, 29.386086], [114.759818, 29.363139], [114.740724, 29.386607], [114.67297, 29.395993], [114.621847, 29.379828], [114.589819, 29.352707], [114.519602, 29.325578], [114.466015, 29.324013], [114.440145, 29.341752], [114.376088, 29.322969], [114.341595, 29.327665], [114.307102, 29.365225], [114.259059, 29.343839], [114.252284, 29.23475], [114.169748, 29.216993], [114.063191, 29.204978], [114.034857, 29.152204], [113.98743, 29.126068], [113.952321, 29.092604], [113.94185, 29.047097], [113.961561, 28.999476], [113.955401, 28.978536], [113.973879, 28.937692], [114.008988, 28.955498], [114.005292, 28.917788], [114.028082, 28.891069], [114.060111, 28.902596], [114.056415, 28.872204], [114.076741, 28.834464], [114.124784, 28.843376], [114.153734, 28.829221], [114.137719, 28.779926], [114.157429, 28.761566], [114.122321, 28.623497], [114.132176, 28.607211], [114.08598, 28.558337], [114.138335, 28.533629], [114.15435, 28.507337], [114.218407, 28.48472], [114.217175, 28.466308], [114.172212, 28.432632], [114.214712, 28.403157], [114.252284, 28.395787], [114.2529, 28.319423], [114.198081, 28.29097], [114.182067, 28.249858], [114.143879, 28.246694], [114.109386, 28.205038], [114.107538, 28.182885], [114.068734, 28.171806], [114.012068, 28.174972], [113.992357, 28.161255], [114.025002, 28.080499], [114.047176, 28.057263], [114.025618, 28.031382], [113.970184, 28.041418], [113.966488, 28.017646], [113.936307, 28.018703], [113.914133, 27.991227], [113.864242, 28.004966], [113.845148, 27.971672], [113.822974, 27.982243], [113.752141, 27.93361], [113.72812, 27.874904], [113.756453, 27.860091], [113.763228, 27.799228], [113.69917, 27.740979], [113.696707, 27.71979], [113.652359, 27.663619], [113.607395, 27.625449], [113.608627, 27.585143], [113.579062, 27.545354], [113.583374, 27.524657], [113.627105, 27.49971], [113.591381, 27.467855], [113.59754, 27.428554], [113.632033, 27.40518], [113.605548, 27.38924], [113.616635, 27.345658], [113.657902, 27.347253], [113.699786, 27.331836], [113.72812, 27.350442], [113.872865, 27.384988], [113.872865, 27.346721], [113.854387, 27.30525], [113.872865, 27.289828], [113.846996, 27.222262], [113.779242, 27.137081], [113.771851, 27.096598], [113.803264, 27.099261], [113.824206, 27.036378], [113.86301, 27.018252], [113.892575, 26.964925], [113.927068, 26.948922], [113.890112, 26.895562], [113.877177, 26.859262], [113.835909, 26.806394], [113.853771, 26.769532], [113.860546, 26.664221], [113.912901, 26.613938], [113.996669, 26.615543], [114.019459, 26.587182], [114.10877, 26.56952], [114.07243, 26.480096], [114.110002, 26.482775], [114.090292, 26.455988], [114.085364, 26.406149], [114.062575, 26.406149], [114.030546, 26.376664], [114.047792, 26.337518], [114.021307, 26.288701], [114.029314, 26.266163], [113.978807, 26.237716], [113.972647, 26.20604], [113.949242, 26.192616], [113.962792, 26.150722], [114.013299, 26.184023], [114.088444, 26.168448], [114.102611, 26.187783], [114.181451, 26.214631], [114.216559, 26.203355], [114.237501, 26.152333], [114.188842, 26.121172], [114.10569, 26.097526], [114.121089, 26.085702], [114.087828, 26.06635], [114.044096, 26.076564], [114.008372, 26.015806], [114.028082, 25.98138], [114.028082, 25.893119], [113.971416, 25.836036], [113.961561, 25.77731], [113.920293, 25.741197], [113.913517, 25.701299], [113.957249, 25.611749], [113.983118, 25.599336], [113.986198, 25.529153], [113.962792, 25.528072], [113.94493, 25.441635], [114.003444, 25.442716], [113.983118, 25.415152], [114.050256, 25.36433], [114.029314, 25.328093], [114.017611, 25.273987], [114.039785, 25.250714], [114.055799, 25.277775], [114.083517, 25.275611], [114.115545, 25.302125], [114.190074, 25.316733], [114.204857, 25.29942], [114.260291, 25.291845], [114.2954, 25.299961], [114.31511, 25.33837], [114.382863, 25.317274], [114.43029, 25.343779], [114.438914, 25.376226], [114.477718, 25.37136], [114.541159, 25.416773], [114.599674, 25.385959], [114.63663, 25.324306], [114.714238, 25.315651], [114.743188, 25.274528], [114.73518, 25.225813], [114.693912, 25.213902], [114.685905, 25.173287], [114.73518, 25.155954], [114.735796, 25.121822], [114.664963, 25.10123], [114.640326, 25.074129], [114.604601, 25.083886], [114.561485, 25.077382], [114.532536, 25.022623], [114.506051, 24.999844], [114.45616, 24.99659], [114.454928, 24.977062], [114.395798, 24.951019], [114.403189, 24.877746], [114.378551, 24.861457], [114.342211, 24.807145], [114.336052, 24.749004], [114.281849, 24.724001], [114.27261, 24.700624], [114.169132, 24.689749], [114.19069, 24.656576], [114.258443, 24.641346], [114.289856, 24.619042], [114.300943, 24.578775], [114.363769, 24.582584], [114.391486, 24.563535], [114.403189, 24.497657], [114.429058, 24.48622], [114.534384, 24.559181], [114.589819, 24.537406], [114.627391, 24.576598], [114.664963, 24.583673], [114.704999, 24.525973], [114.73826, 24.565168], [114.729637, 24.608704], [114.781376, 24.613057], [114.827571, 24.588026], [114.846665, 24.602719], [114.868839, 24.562446], [114.893477, 24.582584], [114.909491, 24.661471], [114.940288, 24.650049], [115.00373, 24.679418], [115.024672, 24.669085], [115.057317, 24.703343], [115.083802, 24.699537], [115.104744, 24.667997], [115.1842, 24.711498], [115.258729, 24.728894], [115.269816, 24.749548], [115.306772, 24.758787], [115.358511, 24.735416], [115.372678, 24.774546], [115.412714, 24.79302], [115.476771, 24.762591], [115.522967, 24.702799], [115.555611, 24.683768], [115.569778, 24.622306], [115.605503, 24.62557], [115.671408, 24.604895], [115.68927, 24.545027], [115.752712, 24.546116], [115.785357, 24.567345], [115.843871, 24.562446], [115.840791, 24.584217], [115.797676, 24.628834], [115.780429, 24.663103], [115.801371, 24.705517], [115.769342, 24.708236], [115.756408, 24.749004], [115.776734, 24.774546], [115.764415, 24.791933], [115.790284, 24.856027], [115.807531, 24.862543], [115.824161, 24.909232], [115.863581, 24.891318], [115.861733, 24.863629], [115.907313, 24.879917], [115.885139, 24.898918], [115.89253, 24.936911], [115.870356, 24.959701], [115.925175, 24.960786], [115.873436, 25.019911], [115.928255, 25.050276], [115.908545, 25.084428], [115.880212, 25.092016], [115.888219, 25.128866], [115.860501, 25.165704], [115.855574, 25.20957], [115.930719, 25.236099], [115.949813, 25.292386], [115.987385, 25.290221], [116.008327, 25.319437], [115.992928, 25.374063], [116.023109, 25.435691], [116.005247, 25.490264], [116.03666, 25.514571], [116.040356, 25.548052], [116.063145, 25.56317], [116.041588, 25.62416], [116.068689, 25.646282], [116.067457, 25.703995], [116.106877, 25.701299], [116.129667, 25.758985], [116.18079, 25.778926], [116.131515, 25.824185], [116.132131, 25.860273], [116.17771, 25.894195], [116.225138, 25.908731], [116.258398, 25.902809], [116.303362, 25.924341], [116.326152, 25.956631], [116.369883, 25.963088], [116.360028, 25.991601], [116.384666, 26.030864], [116.489375, 26.113649], [116.476441, 26.172745], [116.435789, 26.159854], [116.392057, 26.171133], [116.400064, 26.202819], [116.385282, 26.238253], [116.412999, 26.297822], [116.437021, 26.308016], [116.459194, 26.345026], [116.499846, 26.361651], [116.519557, 26.410437], [116.553433, 26.400253], [116.553433, 26.365404], [116.601476, 26.372911], [116.608252, 26.429732], [116.638433, 26.477418], [116.610716, 26.476882], [116.597165, 26.512768], [116.539267, 26.559349], [116.553433, 26.575942], [116.566368, 26.650315], [116.520172, 26.684543], [116.515245, 26.720898], [116.557745, 26.773806], [116.543578, 26.803723], [116.548506, 26.84004], [116.602092, 26.888623], [116.632889, 26.933984], [116.679085, 26.978259], [116.817671, 27.018252], [116.851548, 27.009188], [116.910062, 27.034779], [116.936547, 27.019319], [116.967344, 27.061962], [117.05296, 27.100327], [117.044953, 27.146667], [117.149662, 27.241419], [117.171836, 27.29036], [117.136728, 27.303123], [117.140423, 27.322798], [117.104699, 27.330773], [117.107163, 27.393491], [117.133032, 27.42218], [117.110242, 27.458828], [117.103467, 27.533149], [117.076982, 27.566046], [117.054808, 27.5427], [117.01662, 27.563393], [117.024627, 27.592569], [117.003685, 27.625449], [117.040641, 27.669979], [117.065279, 27.665739], [117.094228, 27.627569], [117.11209, 27.645596], [117.096076, 27.667329], [117.114554, 27.692238], [117.174916, 27.677399], [117.204481, 27.683759], [117.205097, 27.714492], [117.245133, 27.71926], [117.296256, 27.764282], [117.303031, 27.833103], [117.276546, 27.847921], [117.280242, 27.871201], [117.334444, 27.8876], [117.341836, 27.855858], [117.366473, 27.88231], [117.407741, 27.893948], [117.453936, 27.939955], [117.477958, 27.930966], [117.52169, 27.982243], [117.556182, 27.966387], [117.609769, 27.863265], [117.649805, 27.851625], [117.68245, 27.823577], [117.704624, 27.834162], [117.740348, 27.800286], [117.788392, 27.855858], [117.78716, 27.896063], [117.856145, 27.94577], [117.910963, 27.949471], [117.942992, 27.974315], [117.965166, 27.962687], [117.999043, 27.991227], [118.096977, 27.970615], [118.094513, 28.003909], [118.129006, 28.017118], [118.120999, 28.041946], [118.153644, 28.062016], [118.199839, 28.049869], [118.242339, 28.075746], [118.356288, 28.091586], [118.361215, 28.155978], [118.375382, 28.186577], [118.339041, 28.193962], [118.314404, 28.221913], [118.424041, 28.291497], [118.433896, 28.288335], [118.480091, 28.327325], [118.455454, 28.384204], [118.432048, 28.402104], [118.456686, 28.424738], [118.474548, 28.478934], [118.414802, 28.497344], [118.4302, 28.515225], [118.412338, 28.55676], [118.428352, 28.617193], [118.428352, 28.617193], [118.428352, 28.681267], [118.403099, 28.702791], [118.364295, 28.813491], [118.300237, 28.826075], [118.270056, 28.918836], [118.195527, 28.904167], [118.227556, 28.942406], [118.165346, 28.986912], [118.133933, 28.983771], [118.115455, 29.009944], [118.115455, 29.009944], [118.097593, 28.998952], [118.066796, 29.053898], [118.076035, 29.074822], [118.037847, 29.102017], [118.045238, 29.149068], [118.027992, 29.167882], [118.042159, 29.210202], [118.073571, 29.216993], [118.077883, 29.290614], [118.138861, 29.283828], [118.178281, 29.297921], [118.166578, 29.314099], [118.205382, 29.343839], [118.193064, 29.395472]]]]}}, {"type": "Feature", "properties": {"adcode": 430000, "name": "湖南省", "center": [112.982279, 28.19409], "centroid": [111.711649, 27.629216], "childrenNum": 14, "level": "province", "parent": {"adcode": 100000}, "subFeatureIndex": 17, "acroutes": [100000]}, "geometry": {"type": "MultiPolygon", "coordinates": [[[[112.024431, 24.740308], [112.03367, 24.771286], [112.124214, 24.841364], [112.149467, 24.837019], [112.167329, 24.859828], [112.175337, 24.927685], [112.119902, 24.963499], [112.12175, 24.989538], [112.155626, 25.026419], [112.151931, 25.055698], [112.177184, 25.106649], [112.187039, 25.182494], [112.246785, 25.185202], [112.256025, 25.159204], [112.302836, 25.157037], [112.315771, 25.175453], [112.365046, 25.191701], [112.414937, 25.14241], [112.44327, 25.185744], [112.458053, 25.152162], [112.562762, 25.124531], [112.628052, 25.140785], [112.660081, 25.132658], [112.712436, 25.083344], [112.714899, 25.025876], [112.742001, 24.99876], [112.743233, 24.959701], [112.778341, 24.947764], [112.780805, 24.896747], [112.873812, 24.896747], [112.904609, 24.921715], [112.941565, 24.915745], [112.994536, 24.927142], [113.009934, 24.977604], [112.979137, 25.03401], [113.004391, 25.089306], [112.96805, 25.141869], [112.97421, 25.168412], [113.034572, 25.198199], [112.992688, 25.247467], [112.958195, 25.254503], [112.897833, 25.238264], [112.867036, 25.249632], [112.854718, 25.337829], [112.891058, 25.339993], [112.924319, 25.296714], [112.93479, 25.325929], [112.969898, 25.350269], [113.013014, 25.352432], [113.078304, 25.382174], [113.096782, 25.412449], [113.131274, 25.414611], [113.11834, 25.445418], [113.176854, 25.471355], [113.226129, 25.50971], [113.248919, 25.514031], [113.311129, 25.490264], [113.314208, 25.442716], [113.341926, 25.448661], [113.373338, 25.402719], [113.407215, 25.401637], [113.449715, 25.359463], [113.479896, 25.375145], [113.535946, 25.368656], [113.579062, 25.34432], [113.584606, 25.306453], [113.611707, 25.327552], [113.680076, 25.334584], [113.686852, 25.351891], [113.753373, 25.362707], [113.76446, 25.333502], [113.814967, 25.328634], [113.839605, 25.363248], [113.877177, 25.380552], [113.887032, 25.436772], [113.94493, 25.441635], [113.962792, 25.528072], [113.986198, 25.529153], [113.983118, 25.599336], [113.957249, 25.611749], [113.913517, 25.701299], [113.920293, 25.741197], [113.961561, 25.77731], [113.971416, 25.836036], [114.028082, 25.893119], [114.028082, 25.98138], [114.008372, 26.015806], [114.044096, 26.076564], [114.087828, 26.06635], [114.121089, 26.085702], [114.10569, 26.097526], [114.188842, 26.121172], [114.237501, 26.152333], [114.216559, 26.203355], [114.181451, 26.214631], [114.102611, 26.187783], [114.088444, 26.168448], [114.013299, 26.184023], [113.962792, 26.150722], [113.949242, 26.192616], [113.972647, 26.20604], [113.978807, 26.237716], [114.029314, 26.266163], [114.021307, 26.288701], [114.047792, 26.337518], [114.030546, 26.376664], [114.062575, 26.406149], [114.085364, 26.406149], [114.090292, 26.455988], [114.110002, 26.482775], [114.07243, 26.480096], [114.10877, 26.56952], [114.019459, 26.587182], [113.996669, 26.615543], [113.912901, 26.613938], [113.860546, 26.664221], [113.853771, 26.769532], [113.835909, 26.806394], [113.877177, 26.859262], [113.890112, 26.895562], [113.927068, 26.948922], [113.892575, 26.964925], [113.86301, 27.018252], [113.824206, 27.036378], [113.803264, 27.099261], [113.771851, 27.096598], [113.779242, 27.137081], [113.846996, 27.222262], [113.872865, 27.289828], [113.854387, 27.30525], [113.872865, 27.346721], [113.872865, 27.384988], [113.72812, 27.350442], [113.699786, 27.331836], [113.657902, 27.347253], [113.616635, 27.345658], [113.605548, 27.38924], [113.632033, 27.40518], [113.59754, 27.428554], [113.591381, 27.467855], [113.627105, 27.49971], [113.583374, 27.524657], [113.579062, 27.545354], [113.608627, 27.585143], [113.607395, 27.625449], [113.652359, 27.663619], [113.696707, 27.71979], [113.69917, 27.740979], [113.763228, 27.799228], [113.756453, 27.860091], [113.72812, 27.874904], [113.752141, 27.93361], [113.822974, 27.982243], [113.845148, 27.971672], [113.864242, 28.004966], [113.914133, 27.991227], [113.936307, 28.018703], [113.966488, 28.017646], [113.970184, 28.041418], [114.025618, 28.031382], [114.047176, 28.057263], [114.025002, 28.080499], [113.992357, 28.161255], [114.012068, 28.174972], [114.068734, 28.171806], [114.107538, 28.182885], [114.109386, 28.205038], [114.143879, 28.246694], [114.182067, 28.249858], [114.198081, 28.29097], [114.2529, 28.319423], [114.252284, 28.395787], [114.214712, 28.403157], [114.172212, 28.432632], [114.217175, 28.466308], [114.218407, 28.48472], [114.15435, 28.507337], [114.138335, 28.533629], [114.08598, 28.558337], [114.132176, 28.607211], [114.122321, 28.623497], [114.157429, 28.761566], [114.137719, 28.779926], [114.153734, 28.829221], [114.124784, 28.843376], [114.076741, 28.834464], [114.056415, 28.872204], [114.060111, 28.902596], [114.028082, 28.891069], [114.005292, 28.917788], [114.008988, 28.955498], [113.973879, 28.937692], [113.955401, 28.978536], [113.961561, 28.999476], [113.94185, 29.047097], [113.898119, 29.029307], [113.876561, 29.038202], [113.882104, 29.065407], [113.852539, 29.058606], [113.816199, 29.105154], [113.775547, 29.095219], [113.749677, 29.060699], [113.722576, 29.104631], [113.696091, 29.077437], [113.690547, 29.114566], [113.66283, 29.16945], [113.691779, 29.19662], [113.693011, 29.226394], [113.651743, 29.225872], [113.609859, 29.25146], [113.632033, 29.316186], [113.660982, 29.333405], [113.674533, 29.388172], [113.731199, 29.393907], [113.755221, 29.446557], [113.677613, 29.513763], [113.630801, 29.523137], [113.710257, 29.555419], [113.73859, 29.579363], [113.704098, 29.634518], [113.680692, 29.64336], [113.663446, 29.684443], [113.606164, 29.666764], [113.547033, 29.675603], [113.540258, 29.699519], [113.558736, 29.727067], [113.550729, 29.768115], [113.575367, 29.809147], [113.571671, 29.849123], [113.37765, 29.703158], [113.277252, 29.594976], [113.222433, 29.543965], [113.181781, 29.485636], [113.145441, 29.449163], [113.099861, 29.459585], [113.078304, 29.438218], [113.057362, 29.522616], [113.034572, 29.523658], [112.950188, 29.473132], [112.912, 29.606944], [112.915696, 29.620992], [113.005007, 29.693801], [113.025949, 29.772791], [112.974826, 29.732784], [112.944645, 29.682883], [112.926782, 29.692241], [112.923703, 29.766557], [112.894138, 29.783699], [112.861493, 29.78318], [112.79374, 29.735902], [112.788812, 29.681323], [112.733378, 29.645441], [112.714283, 29.648561], [112.693957, 29.601741], [112.650842, 29.592374], [112.640371, 29.607985], [112.572001, 29.624113], [112.54182, 29.60122], [112.499321, 29.629316], [112.439574, 29.633997], [112.424792, 29.598619], [112.368741, 29.541362], [112.333017, 29.545007], [112.291133, 29.517409], [112.281278, 29.536676], [112.303452, 29.585609], [112.233851, 29.61631], [112.244322, 29.659483], [112.202438, 29.633997], [112.178416, 29.656883], [112.111279, 29.659483], [112.089721, 29.685482], [112.065699, 29.681323], [112.07617, 29.743696], [112.008417, 29.778505], [111.95483, 29.796683], [111.965917, 29.832512], [111.925881, 29.836665], [111.899396, 29.855871], [111.899396, 29.855871], [111.861207, 29.856909], [111.8107, 29.901017], [111.75773, 29.92021], [111.723853, 29.909317], [111.723853, 29.909317], [111.705375, 29.890121], [111.669034, 29.888565], [111.669034, 29.888565], [111.553854, 29.894272], [111.527368, 29.925916], [111.475629, 29.918654], [111.436825, 29.930065], [111.394325, 29.912948], [111.382623, 29.95029], [111.342587, 29.944586], [111.3315, 29.970512], [111.266826, 30.01146], [111.242188, 30.040476], [111.031537, 30.048765], [110.929907, 30.063268], [110.924364, 30.111426], [110.851067, 30.126439], [110.746973, 30.112979], [110.756212, 30.054463], [110.712481, 30.033223], [110.650887, 30.07777], [110.600996, 30.054463], [110.531394, 30.061197], [110.497518, 30.055499], [110.491358, 30.019751], [110.557264, 29.988137], [110.517228, 29.961179], [110.49875, 29.91243], [110.538786, 29.895828], [110.549873, 29.848085], [110.60038, 29.839779], [110.642879, 29.775907], [110.562807, 29.712515], [110.507373, 29.692241], [110.467337, 29.713034], [110.447011, 29.664684], [110.372482, 29.633477], [110.339221, 29.668324], [110.302265, 29.661563], [110.289946, 29.6964], [110.219729, 29.746814], [110.160599, 29.753569], [110.113788, 29.789932], [110.02386, 29.769674], [109.941325, 29.774349], [109.908064, 29.763959], [109.869876, 29.774869], [109.779333, 29.757725], [109.755311, 29.733304], [109.760238, 29.689122], [109.714659, 29.673524], [109.701108, 29.636078], [109.717739, 29.615269], [109.664768, 29.599659], [109.651833, 29.625674], [109.578536, 29.629836], [109.558826, 29.606944], [109.516326, 29.626194], [109.488609, 29.553336], [109.467051, 29.560104], [109.458428, 29.513242], [109.433791, 29.530948], [109.436254, 29.488761], [109.415928, 29.497617], [109.418392, 29.453332], [109.368501, 29.413719], [109.391291, 29.372005], [109.343863, 29.369398], [109.352487, 29.284872], [109.312451, 29.25146], [109.257632, 29.222738], [109.275494, 29.202366], [109.261328, 29.161089], [109.274262, 29.121885], [109.232378, 29.119271], [109.240386, 29.086328], [109.312451, 29.066453], [109.319842, 29.042388], [109.294588, 29.015177], [109.292741, 28.987436], [109.261328, 28.952356], [109.235458, 28.882161], [109.246545, 28.80143], [109.241002, 28.776779], [109.2989, 28.7474], [109.294588, 28.722211], [109.252704, 28.691767], [109.271183, 28.671816], [109.192958, 28.636104], [109.201581, 28.597753], [109.235458, 28.61982], [109.252089, 28.606685], [109.306907, 28.62087], [109.319842, 28.579886], [109.273646, 28.53836], [109.274262, 28.494714], [109.260712, 28.46473], [109.264407, 28.392628], [109.289045, 28.373673], [109.268719, 28.33786], [109.275494, 28.313101], [109.317994, 28.277795], [109.33524, 28.293605], [109.388211, 28.268307], [109.367885, 28.254602], [109.340168, 28.19027], [109.33832, 28.141731], [109.314298, 28.103729], [109.298284, 28.036136], [109.335856, 28.063073], [109.378972, 28.034551], [109.362342, 28.007608], [109.319842, 27.988585], [109.30198, 27.956343], [109.32169, 27.868027], [109.346943, 27.838396], [109.332777, 27.782815], [109.37774, 27.736741], [109.366653, 27.721909], [109.414081, 27.725087], [109.470747, 27.680049], [109.45658, 27.673689], [109.470131, 27.62863], [109.451037, 27.586204], [109.461508, 27.567637], [109.404841, 27.55066], [109.303211, 27.47582], [109.300132, 27.423774], [109.245313, 27.41793], [109.202197, 27.450331], [109.167089, 27.41793], [109.141835, 27.448207], [109.142451, 27.418461], [109.103647, 27.336621], [109.044517, 27.331304], [109.053756, 27.293551], [108.983539, 27.26802], [108.963213, 27.235565], [108.907778, 27.204699], [108.926873, 27.160512], [108.878829, 27.106187], [108.79075, 27.084343], [108.877597, 27.01612], [108.942887, 27.017186], [108.942887, 27.017186], [108.940423, 27.044907], [109.007561, 27.08008], [109.032814, 27.104056], [109.128901, 27.122701], [109.101183, 27.06889], [109.165857, 27.066758], [109.21698, 27.114711], [109.239154, 27.14933], [109.264407, 27.131755], [109.33524, 27.139212], [109.358646, 27.153058], [109.415312, 27.154123], [109.441182, 27.117907], [109.472595, 27.134951], [109.454733, 27.069423], [109.486761, 27.053968], [109.497848, 27.079548], [109.520022, 27.058764], [109.555131, 26.946788], [109.436254, 26.892359], [109.452885, 26.861932], [109.486761, 26.895562], [109.509551, 26.877947], [109.513247, 26.84004], [109.497232, 26.815474], [109.522486, 26.749226], [109.528645, 26.743881], [109.554515, 26.73533], [109.597015, 26.756173], [109.568065, 26.726243], [109.528645, 26.743881], [109.52187, 26.749226], [109.486761, 26.759913], [109.447957, 26.759913], [109.407305, 26.719829], [109.35495, 26.693098], [109.283501, 26.698445], [109.306291, 26.661012], [109.334008, 26.646036], [109.35495, 26.658873], [109.390675, 26.598955], [109.407305, 26.533116], [109.381436, 26.518659], [109.385747, 26.493487], [109.362342, 26.472061], [109.38082, 26.454381], [109.319842, 26.418477], [109.29582, 26.350389], [109.271183, 26.327863], [109.285965, 26.295676], [109.325385, 26.29031], [109.351255, 26.264016], [109.369733, 26.277432], [109.442414, 26.289774], [109.467051, 26.313917], [109.439334, 26.238789], [109.47629, 26.148035], [109.513863, 26.128157], [109.502776, 26.096451], [109.449805, 26.101826], [109.452885, 26.055598], [109.48245, 26.029788], [109.513247, 25.998056], [109.560058, 26.021184], [109.588391, 26.019571], [109.635203, 26.047533], [109.649369, 26.016882], [109.730057, 25.989988], [109.710963, 25.954478], [109.693717, 25.959321], [109.67955, 25.921649], [109.685094, 25.880197], [109.768246, 25.890427], [109.779333, 25.866196], [109.811361, 25.877504], [109.826144, 25.911422], [109.806434, 25.973848], [109.782412, 25.996981], [109.814441, 26.041081], [109.864332, 26.027637], [109.898825, 26.095377], [109.904368, 26.135679], [109.970274, 26.195301], [110.03002, 26.166299], [110.099005, 26.168985], [110.100853, 26.132455], [110.065128, 26.050221], [110.100853, 26.020108], [110.168606, 26.028713], [110.181541, 26.060437], [110.24991, 26.010965], [110.257301, 25.961473], [110.325671, 25.975462], [110.373098, 26.088927], [110.437772, 26.153945], [110.477808, 26.179727], [110.495054, 26.166299], [110.546793, 26.233421], [110.552952, 26.283335], [110.584365, 26.296749], [110.612083, 26.333764], [110.643495, 26.308552], [110.673676, 26.317135], [110.721104, 26.294066], [110.742046, 26.313917], [110.73527, 26.270993], [110.759292, 26.248451], [110.836284, 26.255966], [110.939762, 26.286554], [110.926212, 26.320354], [110.944074, 26.326791], [110.94469, 26.373447], [110.974255, 26.385778], [111.008747, 26.35897], [111.008132, 26.336982], [111.090667, 26.308016], [111.208928, 26.30426], [111.204616, 26.276359], [111.228022, 26.261333], [111.277913, 26.272066], [111.293311, 26.222148], [111.271754, 26.217316], [111.274833, 26.183486], [111.258203, 26.151796], [111.26621, 26.095914], [111.244652, 26.078177], [111.267442, 26.058824], [111.235413, 26.048071], [111.189834, 25.953402], [111.230486, 25.916267], [111.251428, 25.864581], [111.29208, 25.854349], [111.297007, 25.874274], [111.346282, 25.906577], [111.376463, 25.906039], [111.383239, 25.881812], [111.460231, 25.885042], [111.4861, 25.859196], [111.43313, 25.84627], [111.442369, 25.77192], [111.399869, 25.744431], [111.30871, 25.720171], [111.309942, 25.645203], [111.343202, 25.602574], [111.324724, 25.564249], [111.32842, 25.521592], [111.279145, 25.42326], [111.210776, 25.363248], [111.184906, 25.367034], [111.138711, 25.303748], [111.103602, 25.285351], [111.112841, 25.21715], [110.998892, 25.161371], [110.98411, 25.101772], [110.951465, 25.04377], [110.968711, 24.975434], [111.009363, 24.921172], [111.100522, 24.945593], [111.101754, 25.035095], [111.139943, 25.042144], [111.200921, 25.074672], [111.221862, 25.106649], [111.274833, 25.151078], [111.321645, 25.105023], [111.36784, 25.108817], [111.375231, 25.128324], [111.435593, 25.093642], [111.416499, 25.047566], [111.467622, 25.02208], [111.460231, 24.992793], [111.43313, 24.979774], [111.434977, 24.951562], [111.470086, 24.92877], [111.447296, 24.892947], [111.449144, 24.857113], [111.479325, 24.797366], [111.461463, 24.728894], [111.431282, 24.687574], [111.451608, 24.665822], [111.499035, 24.667997], [111.526752, 24.637538], [111.570484, 24.64461], [111.588962, 24.690837], [111.641933, 24.684856], [111.637621, 24.715303], [111.666571, 24.760961], [111.708455, 24.788673], [111.783599, 24.785957], [111.814396, 24.770199], [111.868599, 24.771829], [111.875374, 24.756613], [111.929577, 24.75607], [111.951135, 24.769655], [112.024431, 24.740308]]], [[[109.528645, 26.743881], [109.522486, 26.749226], [109.52187, 26.749226], [109.528645, 26.743881]]]]}}, {"type": "Feature", "properties": {"adcode": 440000, "name": "广东省", "center": [113.280637, 23.125178], "centroid": [113.429919, 23.334643], "childrenNum": 21, "level": "province", "parent": {"adcode": 100000}, "subFeatureIndex": 18, "acroutes": [100000]}, "geometry": {"type": "MultiPolygon", "coordinates": [[[[113.558736, 22.212244], [113.594461, 22.228864], [113.595693, 22.304186], [113.617866, 22.315259], [113.604932, 22.339617], [113.627721, 22.349027], [113.669605, 22.416539], [113.66591, 22.438667], [113.624642, 22.443092], [113.608627, 22.408793], [113.573519, 22.41156], [113.631417, 22.475723], [113.668373, 22.4807], [113.691779, 22.514981], [113.740438, 22.534329], [113.717033, 22.645391], [113.678228, 22.726007], [113.733663, 22.736494], [113.758301, 22.683496], [113.765692, 22.665825], [113.803264, 22.593463], [113.856851, 22.539857], [113.869786, 22.459685], [113.893807, 22.442539], [113.952937, 22.486783], [113.954785, 22.491206], [113.976343, 22.510558], [114.031778, 22.503923], [114.082285, 22.512216], [114.095219, 22.534329], [114.156813, 22.543726], [114.166052, 22.559201], [114.222719, 22.553122], [114.232574, 22.539857], [114.294784, 22.563623], [114.321885, 22.587385], [114.381631, 22.60175], [114.427211, 22.589042], [114.472174, 22.522168], [114.476486, 22.459132], [114.506667, 22.438667], [114.549167, 22.465769], [114.611377, 22.481806], [114.628623, 22.513875], [114.614456, 22.545384], [114.568261, 22.560859], [114.559022, 22.583517], [114.603369, 22.638763], [114.579964, 22.661407], [114.51529, 22.655332], [114.567029, 22.685705], [114.591666, 22.690122], [114.601521, 22.730975], [114.689601, 22.7674], [114.709927, 22.787817], [114.749963, 22.764089], [114.73518, 22.724351], [114.728405, 22.651466], [114.743803, 22.632687], [114.746267, 22.581859], [114.866375, 22.591805], [114.88547, 22.538751], [114.922426, 22.549253], [114.927969, 22.621639], [114.945216, 22.645391], [115.039454, 22.713862], [115.02344, 22.726007], [115.053621, 22.747533], [115.076411, 22.788368], [115.154635, 22.80161], [115.190975, 22.77347], [115.190359, 22.818711], [115.236555, 22.82533], [115.230396, 22.776781], [115.319091, 22.783402], [115.338185, 22.776781], [115.349272, 22.712206], [115.381301, 22.684048], [115.430576, 22.684048], [115.471844, 22.697852], [115.575322, 22.650914], [115.565467, 22.684048], [115.609198, 22.753052], [115.541445, 22.755259], [115.570394, 22.786713], [115.583945, 22.82864], [115.654162, 22.865591], [115.696046, 22.84298], [115.760103, 22.834707], [115.788437, 22.809885], [115.796444, 22.739254], [115.829089, 22.734838], [115.883291, 22.78561], [115.931334, 22.802713], [115.965211, 22.800506], [115.99724, 22.826985], [116.05637, 22.844635], [116.104413, 22.816505], [116.14137, 22.835259], [116.239304, 22.921275], [116.259014, 22.932298], [116.302746, 22.951588], [116.382818, 22.91907], [116.449955, 22.936707], [116.50539, 22.930645], [116.544194, 22.996769], [116.576839, 23.014397], [116.557129, 23.056253], [116.566368, 23.088738], [116.550969, 23.109656], [116.566368, 23.134424], [116.665534, 23.158086], [116.701259, 23.198248], [116.74499, 23.215299], [116.806584, 23.200998], [116.821367, 23.240597], [116.798577, 23.244996], [116.782563, 23.313714], [116.871874, 23.4159], [116.871258, 23.416449], [116.874338, 23.447199], [116.874953, 23.447748], [116.895895, 23.476295], [116.888504, 23.501543], [116.92854, 23.530079], [116.963649, 23.507031], [117.01046, 23.502641], [117.044953, 23.539955], [117.085605, 23.536663], [117.192778, 23.5619], [117.192778, 23.629356], [117.147199, 23.654027], [117.123793, 23.647448], [117.055424, 23.694038], [117.048032, 23.758687], [117.019083, 23.801952], [117.012308, 23.855054], [116.981511, 23.855602], [116.955642, 23.922359], [116.976583, 23.931659], [116.981511, 23.999471], [116.953178, 24.008218], [116.930388, 24.064514], [116.9347, 24.126794], [116.998757, 24.179217], [116.956257, 24.216883], [116.933468, 24.220157], [116.938395, 24.28127], [116.914374, 24.287817], [116.919301, 24.321087], [116.895895, 24.350533], [116.903903, 24.369614], [116.839229, 24.442097], [116.860787, 24.460075], [116.83307, 24.496568], [116.796729, 24.502014], [116.759157, 24.545572], [116.761005, 24.583128], [116.815207, 24.654944], [116.777635, 24.679418], [116.667382, 24.658752], [116.623034, 24.64189], [116.600861, 24.654401], [116.570679, 24.621762], [116.530027, 24.604895], [116.506622, 24.621218], [116.517709, 24.652225], [116.485064, 24.720196], [116.44626, 24.714216], [116.416079, 24.744113], [116.419158, 24.767482], [116.375427, 24.803885], [116.381586, 24.82507], [116.417927, 24.840821], [116.395137, 24.877746], [116.363724, 24.87123], [116.345862, 24.828872], [116.297202, 24.801712], [116.244232, 24.793563], [116.251007, 24.82507], [116.221442, 24.829959], [116.191877, 24.877203], [116.153073, 24.846795], [116.068073, 24.850053], [116.015102, 24.905975], [115.985537, 24.899461], [115.907929, 24.923343], [115.89253, 24.936911], [115.885139, 24.898918], [115.907313, 24.879917], [115.861733, 24.863629], [115.863581, 24.891318], [115.824161, 24.909232], [115.807531, 24.862543], [115.790284, 24.856027], [115.764415, 24.791933], [115.776734, 24.774546], [115.756408, 24.749004], [115.769342, 24.708236], [115.801371, 24.705517], [115.780429, 24.663103], [115.797676, 24.628834], [115.840791, 24.584217], [115.843871, 24.562446], [115.785357, 24.567345], [115.752712, 24.546116], [115.68927, 24.545027], [115.671408, 24.604895], [115.605503, 24.62557], [115.569778, 24.622306], [115.555611, 24.683768], [115.522967, 24.702799], [115.476771, 24.762591], [115.412714, 24.79302], [115.372678, 24.774546], [115.358511, 24.735416], [115.306772, 24.758787], [115.269816, 24.749548], [115.258729, 24.728894], [115.1842, 24.711498], [115.104744, 24.667997], [115.083802, 24.699537], [115.057317, 24.703343], [115.024672, 24.669085], [115.00373, 24.679418], [114.940288, 24.650049], [114.909491, 24.661471], [114.893477, 24.582584], [114.868839, 24.562446], [114.846665, 24.602719], [114.827571, 24.588026], [114.781376, 24.613057], [114.729637, 24.608704], [114.73826, 24.565168], [114.704999, 24.525973], [114.664963, 24.583673], [114.627391, 24.576598], [114.589819, 24.537406], [114.534384, 24.559181], [114.429058, 24.48622], [114.403189, 24.497657], [114.391486, 24.563535], [114.363769, 24.582584], [114.300943, 24.578775], [114.289856, 24.619042], [114.258443, 24.641346], [114.19069, 24.656576], [114.169132, 24.689749], [114.27261, 24.700624], [114.281849, 24.724001], [114.336052, 24.749004], [114.342211, 24.807145], [114.378551, 24.861457], [114.403189, 24.877746], [114.395798, 24.951019], [114.454928, 24.977062], [114.45616, 24.99659], [114.506051, 24.999844], [114.532536, 25.022623], [114.561485, 25.077382], [114.604601, 25.083886], [114.640326, 25.074129], [114.664963, 25.10123], [114.735796, 25.121822], [114.73518, 25.155954], [114.685905, 25.173287], [114.693912, 25.213902], [114.73518, 25.225813], [114.743188, 25.274528], [114.714238, 25.315651], [114.63663, 25.324306], [114.599674, 25.385959], [114.541159, 25.416773], [114.477718, 25.37136], [114.438914, 25.376226], [114.43029, 25.343779], [114.382863, 25.317274], [114.31511, 25.33837], [114.2954, 25.299961], [114.260291, 25.291845], [114.204857, 25.29942], [114.190074, 25.316733], [114.115545, 25.302125], [114.083517, 25.275611], [114.055799, 25.277775], [114.039785, 25.250714], [114.017611, 25.273987], [114.029314, 25.328093], [114.050256, 25.36433], [113.983118, 25.415152], [114.003444, 25.442716], [113.94493, 25.441635], [113.887032, 25.436772], [113.877177, 25.380552], [113.839605, 25.363248], [113.814967, 25.328634], [113.76446, 25.333502], [113.753373, 25.362707], [113.686852, 25.351891], [113.680076, 25.334584], [113.611707, 25.327552], [113.584606, 25.306453], [113.579062, 25.34432], [113.535946, 25.368656], [113.479896, 25.375145], [113.449715, 25.359463], [113.407215, 25.401637], [113.373338, 25.402719], [113.341926, 25.448661], [113.314208, 25.442716], [113.311129, 25.490264], [113.248919, 25.514031], [113.226129, 25.50971], [113.176854, 25.471355], [113.11834, 25.445418], [113.131274, 25.414611], [113.096782, 25.412449], [113.078304, 25.382174], [113.013014, 25.352432], [112.969898, 25.350269], [112.93479, 25.325929], [112.924319, 25.296714], [112.891058, 25.339993], [112.854718, 25.337829], [112.867036, 25.249632], [112.897833, 25.238264], [112.958195, 25.254503], [112.992688, 25.247467], [113.034572, 25.198199], [112.97421, 25.168412], [112.96805, 25.141869], [113.004391, 25.089306], [112.979137, 25.03401], [113.009934, 24.977604], [112.994536, 24.927142], [112.941565, 24.915745], [112.904609, 24.921715], [112.873812, 24.896747], [112.780805, 24.896747], [112.778341, 24.947764], [112.743233, 24.959701], [112.742001, 24.99876], [112.714899, 25.025876], [112.712436, 25.083344], [112.660081, 25.132658], [112.628052, 25.140785], [112.562762, 25.124531], [112.458053, 25.152162], [112.44327, 25.185744], [112.414937, 25.14241], [112.365046, 25.191701], [112.315771, 25.175453], [112.302836, 25.157037], [112.256025, 25.159204], [112.246785, 25.185202], [112.187039, 25.182494], [112.177184, 25.106649], [112.151931, 25.055698], [112.155626, 25.026419], [112.12175, 24.989538], [112.119902, 24.963499], [112.175337, 24.927685], [112.167329, 24.859828], [112.149467, 24.837019], [112.124214, 24.841364], [112.03367, 24.771286], [112.024431, 24.740308], [111.961606, 24.721283], [111.939432, 24.686487], [111.953598, 24.64733], [111.927729, 24.629378], [111.936968, 24.595645], [111.972077, 24.578775], [112.007185, 24.534684], [112.009649, 24.503103], [111.985011, 24.467701], [112.025047, 24.438828], [112.057692, 24.387057], [112.05954, 24.339628], [112.026279, 24.294908], [111.990555, 24.279634], [111.986243, 24.25672], [111.958526, 24.263813], [111.912946, 24.221795], [111.877222, 24.227252], [111.871062, 24.176487], [111.886461, 24.163929], [111.878454, 24.109862], [111.92157, 24.012045], [111.940664, 23.987989], [111.911714, 23.943693], [111.854432, 23.947521], [111.845809, 23.904305], [111.812548, 23.887343], [111.824867, 23.832612], [111.8107, 23.80688], [111.722621, 23.823305], [111.683201, 23.822758], [111.683201, 23.822758], [111.654868, 23.833159], [111.627766, 23.78881], [111.621607, 23.725819], [111.666571, 23.718696], [111.614832, 23.65896], [111.615448, 23.639225], [111.555702, 23.64087], [111.487332, 23.626615], [111.479941, 23.532822], [111.428818, 23.466414], [111.399869, 23.469159], [111.383239, 23.399423], [111.389398, 23.375804], [111.363528, 23.340641], [111.376463, 23.30437], [111.353058, 23.284582], [111.36476, 23.240047], [111.388782, 23.210349], [111.38447, 23.16744], [111.365992, 23.14488], [111.377695, 23.082132], [111.402333, 23.066165], [111.43313, 23.073322], [111.433746, 23.036428], [111.389398, 23.005583], [111.403565, 22.99126], [111.362913, 22.967568], [111.374615, 22.938361], [111.358601, 22.889301], [111.218167, 22.748085], [111.185522, 22.735942], [111.118385, 22.744773], [111.058023, 22.729871], [111.089435, 22.695643], [111.055559, 22.648705], [110.997045, 22.631582], [110.958856, 22.636553], [110.950233, 22.61059], [110.896031, 22.613352], [110.897878, 22.591805], [110.812263, 22.576333], [110.778386, 22.585174], [110.749437, 22.556991], [110.762988, 22.518298], [110.740198, 22.498947], [110.74143, 22.464109], [110.688459, 22.477935], [110.712481, 22.440879], [110.711249, 22.369506], [110.74143, 22.361757], [110.749437, 22.329653], [110.787009, 22.28259], [110.759292, 22.274837], [110.725415, 22.29588], [110.687843, 22.249914], [110.646575, 22.220554], [110.678604, 22.172901], [110.629329, 22.149068], [110.598532, 22.162924], [110.602843, 22.18343], [110.55788, 22.196175], [110.505525, 22.14297], [110.456866, 22.189526], [110.414366, 22.208365], [110.378026, 22.164587], [110.34846, 22.195621], [110.326287, 22.152393], [110.364475, 22.125785], [110.35154, 22.097508], [110.359547, 22.015973], [110.352772, 21.97602], [110.374946, 21.967695], [110.374946, 21.967695], [110.378642, 21.939942], [110.378642, 21.939942], [110.391576, 21.89386], [110.337374, 21.887751], [110.290562, 21.917736], [110.283787, 21.892194], [110.224041, 21.882198], [110.224041, 21.882198], [110.212338, 21.886085], [110.212338, 21.886085], [110.196323, 21.899968], [110.12857, 21.902744], [110.101469, 21.86998], [110.050962, 21.857205], [109.999839, 21.881643], [109.94502, 21.84443], [109.940093, 21.769419], [109.916071, 21.668787], [109.888354, 21.652101], [109.888354, 21.652101], [109.839695, 21.636525], [109.786108, 21.637638], [109.778101, 21.670455], [109.742992, 21.616497], [109.754695, 21.556396], [109.788572, 21.490702], [109.785492, 21.45673], [109.819369, 21.445033], [109.894513, 21.442248], [109.904368, 21.429992], [109.868644, 21.365913], [109.770709, 21.359783], [109.757775, 21.346963], [109.763934, 21.226514], [109.674623, 21.136671], [109.674007, 21.067997], [109.655529, 20.929435], [109.664768, 20.862343], [109.711579, 20.774519], [109.730057, 20.719673], [109.74484, 20.621124], [109.793499, 20.615522], [109.813825, 20.574627], [109.811977, 20.541566], [109.839695, 20.489439], [109.888354, 20.475423], [109.895745, 20.42776], [109.864948, 20.40196], [109.861252, 20.376717], [109.916071, 20.316677], [109.909296, 20.236961], [109.929006, 20.211691], [109.993679, 20.254368], [110.082375, 20.258859], [110.118099, 20.219553], [110.168606, 20.219553], [110.220345, 20.25156], [110.296722, 20.249314], [110.349076, 20.258859], [110.384185, 20.293103], [110.425453, 20.291419], [110.452554, 20.311064], [110.491358, 20.373912], [110.54125, 20.42047], [110.550489, 20.47262], [110.499982, 20.572386], [110.487047, 20.640167], [110.466105, 20.680485], [110.411286, 20.670966], [110.392192, 20.682724], [110.407591, 20.731987], [110.393424, 20.816479], [110.350924, 20.84165], [110.327519, 20.847802], [110.269004, 20.839972], [110.209874, 20.860106], [110.184005, 20.891979], [110.180925, 20.98197], [110.204947, 21.003202], [110.208642, 21.050684], [110.241903, 21.016051], [110.24991, 21.045098], [110.296722, 21.093684], [110.39096, 21.124949], [110.422373, 21.190807], [110.451322, 21.186343], [110.501213, 21.217588], [110.534474, 21.204198], [110.626249, 21.215915], [110.65951, 21.239902], [110.713097, 21.3124], [110.768531, 21.364799], [110.796248, 21.37483], [110.888639, 21.367585], [110.929291, 21.375945], [111.034617, 21.438906], [111.103602, 21.455616], [111.171355, 21.458401], [111.28284, 21.485691], [111.276065, 21.443362], [111.250196, 21.45116], [111.257587, 21.41495], [111.28592, 21.41885], [111.353058, 21.464528], [111.382623, 21.495714], [111.444217, 21.514088], [111.494724, 21.501282], [111.521825, 21.517429], [111.560629, 21.50518], [111.609904, 21.530234], [111.650556, 21.512418], [111.677658, 21.529677], [111.693672, 21.590345], [111.736788, 21.609821], [111.794686, 21.61149], [111.832258, 21.578659], [111.810084, 21.555283], [111.887693, 21.578659], [111.941896, 21.607039], [111.972692, 21.603144], [112.026895, 21.633744], [111.997946, 21.657107], [111.954214, 21.667674], [111.956062, 21.710494], [112.036134, 21.761637], [112.136532, 21.793871], [112.192583, 21.789425], [112.196894, 21.736624], [112.236315, 21.727173], [112.238778, 21.702153], [112.353343, 21.707157], [112.415553, 21.734956], [112.427256, 21.789981], [112.445734, 21.803317], [112.497473, 21.785535], [112.535661, 21.753856], [112.647146, 21.758302], [112.68595, 21.810541], [112.792508, 21.921067], [112.841167, 21.920512], [112.893522, 21.84443], [112.929862, 21.838875], [112.989608, 21.869424], [113.047507, 21.956595], [113.053666, 22.012089], [113.032108, 22.04593], [113.045659, 22.088636], [113.086927, 22.12634], [113.091854, 22.065344], [113.142977, 22.012089], [113.1516, 21.979905], [113.235368, 21.887751], [113.266781, 21.871646], [113.319752, 21.909407], [113.330223, 21.96159], [113.442324, 22.009315], [113.45957, 22.043711], [113.527939, 22.073663], [113.567359, 22.075327], [113.554425, 22.107489], [113.554425, 22.142416], [113.534715, 22.174009], [113.53841, 22.209473], [113.558736, 22.212244]]], [[[117.024627, 23.437865], [116.982743, 23.460924], [116.944555, 23.440061], [116.951946, 23.419744], [117.027091, 23.41535], [117.050496, 23.400522], [117.081909, 23.409309], [117.124409, 23.389537], [117.142887, 23.400522], [117.142887, 23.459826], [117.129336, 23.483431], [117.093612, 23.459277], [117.058503, 23.47355], [117.029554, 23.443356], [117.024627, 23.437865]]], [[[112.853486, 21.740515], [112.876275, 21.772753], [112.840551, 21.776644], [112.782653, 21.739959], [112.724138, 21.719945], [112.70566, 21.679354], [112.734609, 21.666562], [112.780189, 21.671568], [112.730914, 21.613715], [112.775261, 21.564189], [112.817145, 21.590345], [112.798667, 21.610933], [112.821457, 21.655994], [112.804826, 21.686583], [112.83316, 21.736624], [112.853486, 21.740515]]], [[[112.530733, 21.583667], [112.563378, 21.591458], [112.571385, 21.619835], [112.621277, 21.606482], [112.665624, 21.642644], [112.639139, 21.67268], [112.66624, 21.683803], [112.663776, 21.714386], [112.592327, 21.693256], [112.560299, 21.666562], [112.57077, 21.645982], [112.535045, 21.628737], [112.530733, 21.583667]]], [[[114.231342, 22.016528], [114.311414, 22.041493], [114.302791, 22.050368], [114.239965, 22.03539], [114.231342, 22.016528]]], [[[110.43346, 21.171276], [110.489511, 21.138904], [110.508605, 21.140579], [110.544945, 21.083633], [110.582517, 21.094801], [110.632409, 21.210893], [110.589293, 21.194713], [110.525235, 21.190249], [110.499366, 21.213125], [110.445163, 21.184669], [110.431612, 21.180763], [110.43346, 21.171276]]], [[[112.435263, 21.663781], [112.456205, 21.648763], [112.458669, 21.68992], [112.435263, 21.663781]]], [[[110.517844, 21.079166], [110.459946, 21.062971], [110.398352, 21.096476], [110.352772, 21.079724], [110.305961, 21.0881], [110.27578, 21.033369], [110.211106, 20.986999], [110.201251, 20.938378], [110.309656, 20.963529], [110.347845, 20.984763], [110.407591, 20.990351], [110.47288, 20.983087], [110.511684, 20.916578], [110.535706, 20.922727], [110.539402, 20.987557], [110.560344, 21.061295], [110.517844, 21.079166]]], [[[113.765076, 21.962145], [113.774315, 21.998218], [113.74167, 21.991559], [113.765076, 21.962145]]], [[[113.723192, 21.922177], [113.742902, 21.950489], [113.71888, 21.951599], [113.723192, 21.922177]]], [[[113.142977, 21.831653], [113.162071, 21.853873], [113.203955, 21.861093], [113.167615, 21.876644], [113.136818, 21.868869], [113.142977, 21.831653]]], [[[113.819894, 22.396068], [113.813735, 22.419858], [113.786634, 22.413773], [113.819894, 22.396068]]], [[[114.190074, 21.986564], [114.229494, 21.995443], [114.180835, 22.00987], [114.190074, 21.986564]]], [[[114.153734, 21.97491], [114.171596, 22.000437], [114.124169, 21.985455], [114.153734, 21.97491]]], [[[116.769628, 20.771721], [116.761005, 20.750456], [116.87249, 20.738143], [116.889736, 20.683284], [116.849084, 20.628405], [116.749302, 20.600958], [116.796113, 20.582471], [116.862635, 20.588633], [116.905135, 20.619443], [116.934084, 20.676565], [116.925461, 20.726949], [116.88604, 20.775638], [116.820135, 20.780674], [116.769628, 20.771721]]], [[[113.025333, 21.847762], [113.045659, 21.882753], [113.007471, 21.869424], [113.025333, 21.847762]]], [[[110.405127, 20.678245], [110.437772, 20.677685], [110.414366, 20.710157], [110.405127, 20.678245]]], [[[110.644727, 20.935584], [110.584365, 20.948998], [110.548641, 20.908752], [110.562807, 20.861224], [110.611467, 20.860106], [110.646575, 20.917137], [110.644727, 20.935584]]], [[[110.556648, 20.32734], [110.593604, 20.360447], [110.586213, 20.381205], [110.556648, 20.32734]]], [[[115.943037, 21.097592], [115.953508, 21.064088], [115.989233, 21.035603], [116.040356, 21.02052], [116.067457, 21.04063], [116.044051, 21.110434], [116.024341, 21.12439], [115.965211, 21.123832], [115.943037, 21.097592]]], [[[115.926407, 20.981411], [115.939342, 20.945644], [115.970139, 20.919373], [115.999088, 20.922727], [116.000936, 20.948439], [115.954124, 20.99985], [115.926407, 20.981411]]], [[[115.834632, 22.722695], [115.834632, 22.722143], [115.835248, 22.722695], [115.834632, 22.722695]]], [[[115.834632, 22.723247], [115.834632, 22.722695], [115.835248, 22.722695], [115.834632, 22.723247]]]]}}, {"type": "Feature", "properties": {"adcode": 710000, "name": "台湾省", "center": [121.509062, 25.044332], "centroid": [120.971485, 23.749452], "childrenNum": 0, "level": "province", "parent": {"adcode": 100000}, "subFeatureIndex": 31, "acroutes": [100000]}, "geometry": {"type": "MultiPolygon", "coordinates": [[[[120.443706, 22.441432], [120.517619, 22.408793], [120.569973, 22.361757], [120.640806, 22.241605], [120.659285, 22.154056], [120.661748, 22.067007], [120.651277, 22.033171], [120.667908, 21.983235], [120.701784, 21.927174], [120.743052, 21.915515], [120.781857, 21.923843], [120.854537, 21.883309], [120.873016, 21.897191], [120.86624, 21.984345], [120.907508, 22.033171], [120.912436, 22.086418], [120.903197, 22.12634], [120.914899, 22.302525], [120.981421, 22.528248], [121.014682, 22.584069], [121.03316, 22.650914], [121.078739, 22.669691], [121.170514, 22.723247], [121.21055, 22.770711], [121.237652, 22.836362], [121.276456, 22.877171], [121.324499, 22.945526], [121.35468, 23.00999], [121.370695, 23.084334], [121.409499, 23.1025], [121.430441, 23.137175], [121.415042, 23.196047], [121.440296, 23.271937], [121.479716, 23.322507], [121.497578, 23.419744], [121.5216, 23.483431], [121.522832, 23.538858], [121.587505, 23.760878], [121.621382, 23.920718], [121.65957, 24.007125], [121.63986, 24.064514], [121.643556, 24.097843], [121.678048, 24.133895], [121.689135, 24.174303], [121.809243, 24.339083], [121.82649, 24.423572], [121.867758, 24.47914], [121.88562, 24.529784], [121.892395, 24.617953], [121.86283, 24.671261], [121.841272, 24.734329], [121.844968, 24.836476], [121.933047, 24.938539], [122.012503, 25.001471], [121.98109, 25.030757], [121.947214, 25.031841], [121.917033, 25.138076], [121.841888, 25.135367], [121.782142, 25.160287], [121.745186, 25.161912], [121.707613, 25.191701], [121.700222, 25.226896], [121.655259, 25.242054], [121.62323, 25.29455], [121.585041, 25.309159], [121.53515, 25.307535], [121.444607, 25.27074], [121.413194, 25.238806], [121.371926, 25.159746], [121.319572, 25.140785], [121.209318, 25.12724], [121.132942, 25.078466], [121.102145, 25.075214], [121.024537, 25.040517], [121.009754, 24.993878], [120.961095, 24.940167], [120.914899, 24.864715], [120.89211, 24.767482], [120.82374, 24.688118], [120.762147, 24.658208], [120.68885, 24.600542], [120.642654, 24.490033], [120.589068, 24.43229], [120.546568, 24.370159], [120.520698, 24.311816], [120.470807, 24.242533], [120.451713, 24.182493], [120.391967, 24.118055], [120.316206, 23.984708], [120.278018, 23.92783], [120.245989, 23.840276], [120.175156, 23.807427], [120.102476, 23.701162], [120.095084, 23.58768], [120.12157, 23.504836], [120.108019, 23.341191], [120.081534, 23.291728], [120.018708, 23.073322], [120.029795, 23.048544], [120.133272, 23.000625], [120.149287, 22.896468], [120.20041, 22.721039], [120.274323, 22.560307], [120.297112, 22.531565], [120.443706, 22.441432]]], [[[124.542782, 25.903886], [124.584666, 25.908731], [124.566804, 25.941563], [124.542782, 25.903886]]], [[[123.445178, 25.726102], [123.469816, 25.712623], [123.50862, 25.722867], [123.512316, 25.755212], [123.479055, 25.768687], [123.445794, 25.749822], [123.445178, 25.726102]]], [[[119.646064, 23.550928], [119.691028, 23.547087], [119.678093, 23.600294], [119.61034, 23.604132], [119.601717, 23.575613], [119.566608, 23.584937], [119.562297, 23.530627], [119.578927, 23.502641], [119.609108, 23.503738], [119.646064, 23.550928]]], [[[123.666916, 25.914114], [123.706952, 25.91519], [123.689706, 25.939949], [123.666916, 25.914114]]], [[[119.506246, 23.625518], [119.506246, 23.577259], [119.47237, 23.556962], [119.519181, 23.559705], [119.52534, 23.62497], [119.506246, 23.625518]]], [[[119.497623, 23.38679], [119.495159, 23.349982], [119.516717, 23.349982], [119.497623, 23.38679]]], [[[119.557369, 23.666634], [119.608492, 23.620035], [119.615268, 23.661153], [119.586318, 23.675952], [119.557369, 23.666634]]], [[[122.066706, 25.6247], [122.087032, 25.61067], [122.092575, 25.639268], [122.066706, 25.6247]]], [[[121.468013, 22.67687], [121.474788, 22.643734], [121.513592, 22.631582], [121.514824, 22.676318], [121.468013, 22.67687]]], [[[121.510513, 22.086972], [121.507433, 22.048704], [121.533918, 22.022076], [121.594281, 21.995443], [121.604752, 22.022631], [121.575186, 22.037055], [121.575802, 22.0842], [121.510513, 22.086972]]], [[[122.097503, 25.499987], [122.110438, 25.465952], [122.122141, 25.495666], [122.097503, 25.499987]]], [[[119.421247, 23.216949], [119.436029, 23.186146], [119.453275, 23.216399], [119.421247, 23.216949]]], [[[120.355011, 22.327439], [120.395663, 22.342385], [120.383344, 22.355669], [120.355011, 22.327439]]]]}}]}